ONEWEB-0716             
1 55177U 23004AP  25151.84559236  .00000064  00000+0  13095-3 0  9990
2 55177  87.9066  81.8096 0001813  81.7523 278.3814 13.17650012117361
ONEWEB-0717             
1 55178U 23004AQ  25151.52497319 -.00000023  00000+0 -91555-4 0  9994
2 55178  87.9065  81.8325 0002666  67.8985 292.2429 13.17648043117379
ONEWEB-0719             
1 55179U 23004AR  25151.53508889  .00000055  00000+0  10798-3 0  9993
2 55179  87.9062  81.8146 0001840  76.9189 283.2148 13.17649073117325
ONEWEB-0530             
1 55796U 23029A   25151.57926740  .00000092  00000+0  19345-3 0  9997
2 55796  87.9263 350.4811 0001930  72.1771 287.9573 13.20772907110774
ONEWEB-0534             
1 55797U 23029B   25151.56663044  .00000070  00000+0  13990-3 0  9998
2 55797  87.9265 350.4912 0001723  89.3597 270.7734 13.20771249110772
ONEWEB-0556             
1 55798U 23029C   25151.57293209  .00000075  00000+0  15241-3 0  9998
2 55798  87.9265 350.4819 0001198  68.7708 291.3553 13.20769920110771
ONEWEB-0562             
1 55799U 23029D   25151.56032017  .00000001  00000+0 -28581-4 0  9998
2 55799  87.9265 350.4776 0001820  57.4931 302.6378 13.20771714110774
ONEWEB-0563             
1 55800U 23029E   25151.55399949  .00000010  00000+0 -63784-5 0  9995
2 55800  87.9265 350.4934 0001636  95.9720 264.1600 13.20770862110763
